{"fetched_at":"2026-03-29T16:36:15Z","count":15609,"tles":[{"name":"STARLINK-32034","line1":"1 60297U 24132V   26087.92118815 -.00000883  00000+0 -17705-4 0  9998","line2":"2 60297  53.1606 323.1829 0001056  97.6757 262.4364 15.30187841 94501","category":"Starlink"}]}