{
  "norad_id": 60297,
  "name": "STARLINK-32034",
  "history": [
    {
      "epoch": "2026-03-28T22:06:30.656160",
      "apogee_km": 475.97509205436836,
      "perigee_km": 474.52765642972827,
      "latitude_deg": -51.847091389955814,
      "longitude_deg": -61.865937599912286,
      "semi_major_axis_km": 6853.3883742420485,
      "eccentricity": 0.0001056,
      "inclination_deg": 53.1606,
      "raan_deg": 323.1829,
      "arg_perigee_deg": 97.6757,
      "mean_anomaly_deg": 262.4364,
      "mean_motion_rev_day": 15.30187841
    }
  ]
}